[{"OBJECT_NAME":"ICEYE-X26","OBJECT_ID":"2023-084AF","EPOCH":"2026-03-09T22:36:43.632288","MEAN_MOTION":15.73279775,"ECCENTRICITY":9.181e-5,"INCLINATION":97.5771,"RA_OF_ASC_NODE":224.5701,"ARG_OF_PERICENTER":250.447,"MEAN_ANOMALY":109.6694,"EPHEMERIS_TYPE":0,"CLASSIFICATION_TYPE":"U","NORAD_CAT_ID":56961,"ELEMENT_SET_NO":999,"REV_AT_EPOCH":15354,"BSTAR":0.00052391916,"MEAN_MOTION_DOT":0.00072488,"MEAN_MOTION_DDOT":0},{"OBJECT_NAME":"STARLINK-11656 [DTC]","OBJECT_ID":"2025-085L","EPOCH":"2026-03-09T22:42:39.716064","MEAN_MOTION":15.71063182,"ECCENTRICITY":0.00025207,"INCLINATION":42.9989,"RA_OF_ASC_NODE":276.7357,"ARG_OF_PERICENTER":263.4025,"MEAN_ANOMALY":96.6556,"EPHEMERIS_TYPE":0,"CLASSIFICATION_TYPE":"U","NORAD_CAT_ID":63674,"ELEMENT_SET_NO":999,"REV_AT_EPOCH":5028,"BSTAR":0.0021365013,"MEAN_MOTION_DOT":0.00286014,"MEAN_MOTION_DDOT":0}]
