ICEYE-X26               
1 56961U 23084AF  26068.94217167  .00072488  00000+0  52392-3 0  9995
2 56961  97.5771 224.5701 0000918 250.4470 109.6694 15.73279775153542
STARLINK-11656 [DTC]    
1 63674U 25085L   26068.94629300  .00286014  00000+0  21365-2 0  9990
2 63674  42.9989 276.7357 0002521 263.4025  96.6556 15.71063182 50284
